{
  "norad_id": 49169,
  "name": "STARLINK-3046",
  "history": [
    {
      "epoch": "2026-03-28T19:04:09.924384Z",
      "apogee_km": 574.2908430758444,
      "perigee_km": 569.8363205189589,
      "latitude_deg": -7.750743821596102e-05,
      "longitude_deg": 114.03973106601566,
      "height_km": 574.3217594478897,
      "semi_major_axis_km": 6950.200581797401,
      "eccentricity": 0.00032046,
      "inclination_deg": 70.0,
      "raan_deg": 226.291,
      "arg_perigee_deg": 274.3632,
      "mean_anomaly_deg": 85.716,
      "mean_motion_rev_day": 14.98327513
    },
    {
      "epoch": "2026-03-29T03:04:50.323872Z",
      "apogee_km": 574.2847268981814,
      "perigee_km": 569.833821204279,
      "latitude_deg": -1.4564067740336965e-05,
      "longitude_deg": -7.299286564396508,
      "height_km": 574.3147233224784,
      "semi_major_axis_km": 6950.19627405123,
      "eccentricity": 0.0003202,
      "inclination_deg": 70.0001,
      "raan_deg": 225.4493,
      "arg_perigee_deg": 274.4372,
      "mean_anomaly_deg": 85.6421,
      "mean_motion_rev_day": 14.98328906
    },
    {
      "epoch": "2026-03-29T09:29:22.469280Z",
      "apogee_km": 574.283725432244,
      "perigee_km": 569.8253165753504,
      "latitude_deg": -4.94967032258176e-05,
      "longitude_deg": -104.36974364658829,
      "height_km": 574.3108151440935,
      "semi_major_axis_km": 6950.191521003797,
      "eccentricity": 0.00032074,
      "inclination_deg": 70.0001,
      "raan_deg": 224.776,
      "arg_perigee_deg": 274.4082,
      "mean_anomaly_deg": 85.671,
      "mean_motion_rev_day": 14.98330443
    },
    {
      "epoch": "2026-03-30T09:29:00.087360Z",
      "apogee_km": 573.7569566396833,
      "perigee_km": 558.660782041241,
      "latitude_deg": 2.0234438045783514e-05,
      "longitude_deg": -107.7872492873788,
      "height_km": 572.1168434264954,
      "semi_major_axis_km": 6944.345869340462,
      "eccentricity": 0.00108694,
      "inclination_deg": 70.0018,
      "raan_deg": 222.2506,
      "arg_perigee_deg": 242.594,
      "mean_anomaly_deg": 117.4115,
      "mean_motion_rev_day": 15.00222751
    },
    {
      "epoch": "2026-03-30T22:00:00.999936Z",
      "apogee_km": 574.2217329797413,
      "perigee_km": 569.7637807510919,
      "latitude_deg": -66.16495207050664,
      "longitude_deg": 7.61644392712252,
      "height_km": 594.2720079958807,
      "semi_major_axis_km": 6950.129756865416,
      "eccentricity": 0.00032071,
      "inclination_deg": 70.0011,
      "raan_deg": 220.94,
      "arg_perigee_deg": 276.2747,
      "mean_anomaly_deg": 7.2167,
      "mean_motion_rev_day": 14.98350416
    }
  ]
}